*******************************************************************************
Ephemeris / WWW_USER Mon Jul 15 19:04:58 2024 Pasadena, USA      / Horizons    
*******************************************************************************
Target body name: (2018 RD5)                      {source: JPL#11}
Center body name: Earth (399)                     {source: DE441}
Center-site name: Gemini South Obs., Cerro Pachon
*******************************************************************************
Start time      : A.D. 2018-Dec-19 23:52:00.0000 UT      
Stop  time      : A.D. 2018-Dec-20 09:28:00.0000 UT      
Step-size       : 1 minutes
*******************************************************************************
Target pole/equ : undefined
Target radii    : undefined                                                    
Center geodetic : 289.2634, -30.2406227, 2.71233  {E-lon(deg),Lat(deg),Alt(km)}
Center cylindric: 289.2634,5517.21435,-3194.81213 {E-lon(deg),Dxy(km),Dz(km)}
Center pole/equ : ITRF93                          {East-longitude positive}
Center radii    : 6378.137, 6378.137, 6356.752 km {Equator_a, b, pole_c}       
Target primary  : Sun
Vis. interferer : MOON (R_eq= 1737.400) km        {source: DE441}
Rel. light bend : Sun                             {source: DE441}
Rel. lght bnd GM: 1.3271E+11 km^3/s^2                                          
Small-body perts: Yes                             {source: SB441-N16}
Atmos refraction: NO (AIRLESS)
RA format       : HMS
Time format     : CAL 
Calendar mode   : Mixed Julian/Gregorian
RTS-only print  : NO       
EOP file        : eop.240715.p241008                                           
EOP coverage    : DATA-BASED 1962-JAN-20 TO 2024-JUL-15. PREDICTS-> 2024-OCT-07
Units conversion: 1 au= 149597870.700 km, c= 299792.458 km/s, 1 day= 86400.0 s 
Table cut-offs 1: Elevation (-90.0deg=NO ),Airmass (>38.000=NO), Daylight (YES)
Table cut-offs 2: Solar elongation (  0.0,180.0=NO ),Local Hour Angle( 0.0=NO )
Table cut-offs 3: RA/DEC angular rate (     0.0=NO )                           
*******************************************************************************
Initial IAU76/J2000 heliocentric ecliptic osculating elements (au, days, deg.):
  EPOCH=  2458378.5 ! 2018-Sep-17.00 (TDB)         Residual RMS= .55339        
   EC= .2891632988519429   QR= 1.009650912138325   TP= 2458360.6433297051      
   OM= 171.0145363394364   W=  163.7983400129293   IN= 8.474307805886117       
  Equivalent ICRF heliocentric cartesian coordinates (au, au/d):
   X= 1.017757009008053E+00  Y=-8.967367621791844E-02  Z=-4.840656937149759E-02
  VX= 3.309922676318766E-03 VY= 1.832358809606965E-02 VZ= 4.854018792897502E-03
Asteroid physical parameters (km, seconds, rotational period in hours):        
   GM= n.a.                RAD= n.a.               ROTPER= n.a.                
   H= 25.9                 G= .150                 B-V= n.a.                   
                           ALBEDO= n.a.            STYP= n.a.                  
*******************************************************************************
 Date__(UT)__HR:MN     R.A._________(ICRF)_________DEC
******************************************************
$$SOE
 2018-Dec-20 03:58  m  03 03 02.014133 -06 51 31.76413
 2018-Dec-20 03:59  m  03 03 02.041875 -06 51 30.84746
 2018-Dec-20 04:00  m  03 03 02.069629 -06 51 29.93076
 2018-Dec-20 04:01  m  03 03 02.097393 -06 51 29.01404
 2018-Dec-20 04:02  m  03 03 02.125169 -06 51 28.09729
 2018-Dec-20 04:03  m  03 03 02.152956 -06 51 27.18052
 2018-Dec-20 04:04  m  03 03 02.180754 -06 51 26.26372
 2018-Dec-20 04:05  m  03 03 02.208564 -06 51 25.34689
 2018-Dec-20 04:06  m  03 03 02.236385 -06 51 24.43004
 2018-Dec-20 04:07  m  03 03 02.264218 -06 51 23.51317
 2018-Dec-20 04:08  m  03 03 02.292062 -06 51 22.59627
 2018-Dec-20 04:09  m  03 03 02.319918 -06 51 21.67935
 2018-Dec-20 04:10  m  03 03 02.347786 -06 51 20.76240
 2018-Dec-20 04:11  m  03 03 02.375665 -06 51 19.84542
 2018-Dec-20 04:12  m  03 03 02.403557 -06 51 18.92842
 2018-Dec-20 04:13  m  03 03 02.431460 -06 51 18.01140
 2018-Dec-20 04:14  m  03 03 02.459376 -06 51 17.09435
 2018-Dec-20 04:15  m  03 03 02.487303 -06 51 16.17728
 2018-Dec-20 04:16  m  03 03 02.515243 -06 51 15.26018
 2018-Dec-20 04:17  m  03 03 02.543195 -06 51 14.34306
 2018-Dec-20 04:18  m  03 03 02.571159 -06 51 13.42592
 2018-Dec-20 04:19  m  03 03 02.599135 -06 51 12.50875
 2018-Dec-20 04:20  m  03 03 02.627124 -06 51 11.59156
 2018-Dec-20 04:21  m  03 03 02.655126 -06 51 10.67434
 2018-Dec-20 04:22  m  03 03 02.683140 -06 51 09.75710
 2018-Dec-20 04:23  m  03 03 02.711167 -06 51 08.83984
 2018-Dec-20 04:24  m  03 03 02.739206 -06 51 07.92255
 2018-Dec-20 04:25  m  03 03 02.767258 -06 51 07.00524
 2018-Dec-20 04:26  m  03 03 02.795323 -06 51 06.08790
 2018-Dec-20 04:27  m  03 03 02.823401 -06 51 05.17054
 2018-Dec-20 04:28  m  03 03 02.851492 -06 51 04.25316
 2018-Dec-20 04:29  m  03 03 02.879596 -06 51 03.33576
 2018-Dec-20 04:30  m  03 03 02.907713 -06 51 02.41833
 2018-Dec-20 04:31  m  03 03 02.935843 -06 51 01.50088
 2018-Dec-20 04:32  m  03 03 02.963986 -06 51 00.58341
 2018-Dec-20 04:33  m  03 03 02.992143 -06 50 59.66591
 2018-Dec-20 04:34  m  03 03 03.020313 -06 50 58.74839
 2018-Dec-20 04:35  m  03 03 03.048497 -06 50 57.83085
 2018-Dec-20 04:36  m  03 03 03.076693 -06 50 56.91329
 2018-Dec-20 04:37  m  03 03 03.104904 -06 50 55.99571
 2018-Dec-20 04:38  m  03 03 03.133128 -06 50 55.07810
 2018-Dec-20 04:39  m  03 03 03.161366 -06 50 54.16047
 2018-Dec-20 04:40  m  03 03 03.189617 -06 50 53.24282
 2018-Dec-20 04:41  m  03 03 03.217883 -06 50 52.32514
 2018-Dec-20 04:42  m  03 03 03.246162 -06 50 51.40745
 2018-Dec-20 04:43  m  03 03 03.274455 -06 50 50.48973
 2018-Dec-20 04:44  m  03 03 03.302762 -06 50 49.57199
 2018-Dec-20 04:45  m  03 03 03.331083 -06 50 48.65423
 2018-Dec-20 04:46  m  03 03 03.359418 -06 50 47.73645
 2018-Dec-20 04:47  m  03 03 03.387767 -06 50 46.81864
 2018-Dec-20 04:48  m  03 03 03.416131 -06 50 45.90082
 2018-Dec-20 04:49  m  03 03 03.444509 -06 50 44.98297
 2018-Dec-20 04:50  m  03 03 03.472901 -06 50 44.06511
 2018-Dec-20 04:51  m  03 03 03.501308 -06 50 43.14722
 2018-Dec-20 04:52  m  03 03 03.529729 -06 50 42.22931
 2018-Dec-20 04:53  m  03 03 03.558164 -06 50 41.31138
 2018-Dec-20 04:54  m  03 03 03.586615 -06 50 40.39343
 2018-Dec-20 04:55  m  03 03 03.615079 -06 50 39.47546
 2018-Dec-20 04:56  m  03 03 03.643559 -06 50 38.55747
 2018-Dec-20 04:57  m  03 03 03.672053 -06 50 37.63946
 2018-Dec-20 04:58  m  03 03 03.700562 -06 50 36.72143
 2018-Dec-20 04:59  m  03 03 03.729086 -06 50 35.80338
 2018-Dec-20 05:00  m  03 03 03.757625 -06 50 34.88531
 2018-Dec-20 05:01  m  03 03 03.786179 -06 50 33.96722
 2018-Dec-20 05:02  m  03 03 03.814748 -06 50 33.04911
 2018-Dec-20 05:03  m  03 03 03.843332 -06 50 32.13098
 2018-Dec-20 05:04  m  03 03 03.871932 -06 50 31.21283
 2018-Dec-20 05:05  m  03 03 03.900546 -06 50 30.29467
 2018-Dec-20 05:06  m  03 03 03.929176 -06 50 29.37648
 2018-Dec-20 05:07  m  03 03 03.957821 -06 50 28.45827
 2018-Dec-20 05:08  m  03 03 03.986481 -06 50 27.54005
 2018-Dec-20 05:09  m  03 03 04.015157 -06 50 26.62180
 2018-Dec-20 05:10  m  03 03 04.043849 -06 50 25.70354
 2018-Dec-20 05:11  m  03 03 04.072556 -06 50 24.78526
 2018-Dec-20 05:12  m  03 03 04.101278 -06 50 23.86696
 2018-Dec-20 05:13  m  03 03 04.130016 -06 50 22.94864
 2018-Dec-20 05:14  m  03 03 04.158770 -06 50 22.03030
 2018-Dec-20 05:15  m  03 03 04.187540 -06 50 21.11195
 2018-Dec-20 05:16  m  03 03 04.216325 -06 50 20.19357
 2018-Dec-20 05:17  m  03 03 04.245127 -06 50 19.27518
 2018-Dec-20 05:18  m  03 03 04.273944 -06 50 18.35677
 2018-Dec-20 05:19  m  03 03 04.302777 -06 50 17.43835
 2018-Dec-20 05:20  m  03 03 04.331627 -06 50 16.51990
 2018-Dec-20 05:21  m  03 03 04.360492 -06 50 15.60144
 2018-Dec-20 05:22  m  03 03 04.389374 -06 50 14.68296
 2018-Dec-20 05:23  m  03 03 04.418271 -06 50 13.76446
 2018-Dec-20 05:24  m  03 03 04.447185 -06 50 12.84595
 2018-Dec-20 05:25  m  03 03 04.476115 -06 50 11.92742
 2018-Dec-20 05:26  m  03 03 04.505062 -06 50 11.00887
 2018-Dec-20 05:27  m  03 03 04.534025 -06 50 10.09031
 2018-Dec-20 05:28  m  03 03 04.563004 -06 50 09.17173
 2018-Dec-20 05:29  m  03 03 04.592000 -06 50 08.25313
 2018-Dec-20 05:30  m  03 03 04.621012 -06 50 07.33451
 2018-Dec-20 05:31  m  03 03 04.650041 -06 50 06.41588
 2018-Dec-20 05:32  m  03 03 04.679087 -06 50 05.49724
 2018-Dec-20 05:33  m  03 03 04.708149 -06 50 04.57857
 2018-Dec-20 05:34  m  03 03 04.737228 -06 50 03.65990
 2018-Dec-20 05:35  m  03 03 04.766324 -06 50 02.74120
 2018-Dec-20 05:36  m  03 03 04.795437 -06 50 01.82249
 2018-Dec-20 05:37  m  03 03 04.824566 -06 50 00.90377
 2018-Dec-20 05:38  m  03 03 04.853712 -06 49 59.98503
 2018-Dec-20 05:39  m  03 03 04.882876 -06 49 59.06627
 2018-Dec-20 05:40  m  03 03 04.912056 -06 49 58.14750
 2018-Dec-20 05:41  m  03 03 04.941253 -06 49 57.22871
 2018-Dec-20 05:42  m  03 03 04.970468 -06 49 56.30991
 2018-Dec-20 05:43  m  03 03 04.999699 -06 49 55.39110
 2018-Dec-20 05:44  m  03 03 05.028948 -06 49 54.47227
 2018-Dec-20 05:45  m  03 03 05.058214 -06 49 53.55342
 2018-Dec-20 05:46  m  03 03 05.087497 -06 49 52.63456
 2018-Dec-20 05:47  m  03 03 05.116798 -06 49 51.71569
 2018-Dec-20 05:48  m  03 03 05.146116 -06 49 50.79680
 2018-Dec-20 05:49  m  03 03 05.175451 -06 49 49.87790
 2018-Dec-20 05:50  m  03 03 05.204804 -06 49 48.95898
 2018-Dec-20 05:51  m  03 03 05.234174 -06 49 48.04005
 2018-Dec-20 05:52  m  03 03 05.263562 -06 49 47.12111
 2018-Dec-20 05:53  m  03 03 05.292967 -06 49 46.20215
 2018-Dec-20 05:54  m  03 03 05.322390 -06 49 45.28318
 2018-Dec-20 05:55  m  03 03 05.351831 -06 49 44.36420
 2018-Dec-20 05:56  m  03 03 05.381289 -06 49 43.44520
 2018-Dec-20 05:57  m  03 03 05.410765 -06 49 42.52619
 2018-Dec-20 05:58  m  03 03 05.440259 -06 49 41.60717
 2018-Dec-20 05:59  m  03 03 05.469771 -06 49 40.68814
 2018-Dec-20 06:00  m  03 03 05.499300 -06 49 39.76909
